{
    "links": {
        "self": "http://www.neowsapp.com/rest/v1/neo/3836122?api_key=iIulBulltgU6a56xZRHN4H3l9WmuAYTsLGpBGhQ2"
    },
    "id": "3836122",
    "neo_reference_id": "3836122",
    "name": "(2018 VL5)",
    "designation": "2018 VL5",
    "nasa_jpl_url": "http://ssd.jpl.nasa.gov/sbdb.cgi?sstr=3836122",
    "absolute_magnitude_h": 25.2,
    "estimated_diameter": {
        "kilometers": {
            "estimated_diameter_min": 0.0242412481,
            "estimated_diameter_max": 0.0542050786
        },
        "meters": {
            "estimated_diameter_min": 24.2412481101,
            "estimated_diameter_max": 54.2050786336
        },
        "miles": {
            "estimated_diameter_min": 0.0150628086,
            "estimated_diameter_max": 0.0336814639
        },
        "feet": {
            "estimated_diameter_min": 79.5316564495,
            "estimated_diameter_max": 177.8381901842
        }
    },
    "is_potentially_hazardous_asteroid": false,
    "close_approach_data": [
        {
            "close_approach_date": "2018-10-31",
            "close_approach_date_full": "2018-Oct-31 19:51",
            "epoch_date_close_approach": 1541015460000,
            "relative_velocity": {
                "kilometers_per_second": "14.5353363561",
                "kilometers_per_hour": "52327.2108820187",
                "miles_per_hour": "32514.0938949966"
            },
            "miss_distance": {
                "astronomical": "0.0501643825",
                "lunar": "19.5139447925",
                "kilometers": "7504484.771865275",
                "miles": "4663070.607779795"
            },
            "orbiting_body": "Earth"
        }
    ],
    "orbital_data": {
        "orbit_id": "3",
        "orbit_determination_date": "2018-11-26 06:29:50",
        "first_observation_date": "2018-11-07",
        "last_observation_date": "2018-11-12",
        "data_arc_in_days": 5,
        "observations_used": 26,
        "orbit_uncertainty": "8",
        "minimum_orbit_intersection": ".0462388",
        "jupiter_tisserand_invariant": "3.596",
        "epoch_osculation": "2458430.5",
        "eccentricity": ".5777222152953867",
        "semi_major_axis": "1.995569164047069",
        "inclination": "12.01436460230737",
        "ascending_node_longitude": "230.7752307294546",
        "orbital_period": "1029.671290047182",
        "perihelion_distance": ".8426845258186334",
        "perihelion_argument": "111.3229240705839",
        "aphelion_distance": "3.148453802275505",
        "perihelion_time": "2458383.018354086386",
        "mean_anomaly": "16.60082464581272",
        "mean_motion": ".3496261413518715",
        "equinox": "J2000",
        "orbit_class": {
            "orbit_class_type": "APO",
            "orbit_class_description": "Near-Earth asteroid orbits which cross the Earth’s orbit similar to that of 1862 Apollo",
            "orbit_class_range": "a (semi-major axis) > 1.0 AU; q (perihelion) < 1.017 AU"
        }
    },
    "is_sentry_object": false
}